{"fetched_at":"2026-03-29T16:36:15Z","count":15609,"tles":[{"name":"STARLINK-3638","line1":"1 51786U 22017U   26087.73387883 -.00000163  00000+0  78247-5 0  9992","line2":"2 51786  53.2167 263.6287 0001120  88.2278 271.8842 15.08833226225151","category":"Starlink"}]}